C/2020 H11 (PANSTARRS-Lemmon),e,151.3685,303.0584,91.3479,6466,0.0000019,0.99882136,0.0000,09/11.5666/2020,2000,g  8.5,4.0
# From MPEC 2023-KD6
C/2020 J1 (SONEAR),e,142.3102,226.5598,341.5240,4445,0.0000033,0.99924778,0.0000,04/17.5842/2021,2000,g  8.5,3.2
# From MPC191585
C/2020 K1 (PANSTARRS),e,89.6706,94.3672,213.9559,1704,0.0000140,0.99819558,0.0000,05/08.4046/2023,2000,g  5.5,4.0
# From MPEC 2021-N06
C/2020 K2 (PANSTARRS),e,90.9851,288.4369,67.2879,187834,0.0000000,0.99995272,0.0000,08/03.3465/2020,2000,g  6.5,4.0
# From MPEC 2023-N01
C/2020 K6 (Rankin),h,09/14.0402/2021,103.6266,291.6038,44.2458,1.001358,5.864921,2000,8.0,4.0
# From MPEC 2023-A50
C/2020 K7 (PANSTARRS),e,32.0442,286.1346,358.0136,93.74616,0.0010859,0.93191050,2.5176,02/28.0/2026,2000,g  8.0,4.0
# From MPEC 2021-BE3
P/2020 K9 (Lemmon-PANSTARRS),e,23.1852,166.3047,197.0684,4.208490,0.1141602,0.31981479,210.4994,02/28.0/2026,2000,g 12.5,4.0
# From MPEC 2023-N01
A/2020 M4,e,160.0943,348.6060,104.4316,6131,0.0000021,0.99903140,0.0000,11/22.0083/2020,2000,g 14.5,2.0
# From MPEC 2024-NE4
P/2020 MK4 (PANSTARRS),e,6.7807,0.6540,94.6721,6.226113,0.0634423,0.01567241,332.6506,02/28.0/2026,2000,g  8.0,4.0
# From MPEC 2023-FK0
C/2020 M5 (ATLAS),h,08/19.5777/2021,93.1591,351.9849,126.2505,1.000053,3.000866,2000,9.0,4.0
# From MPEC 2024-JU4
C/2020 O2 (Amaral),e,71.7658,256.7813,10.1283,5389,0.0000025,0.99909932,0.0000,08/26.8788/2021,2000,g  8.0,3.2
# From MPEC 2023-C45
P/2020 O3 (PANSTARRS),e,8.4443,266.8147,81.0283,4.645917,0.0984231,0.10242641,183.2680,02/28.0/2026,2000,g 12.0,4.0
# From MPEC 2024-JU4
C/2020 P3 (ATLAS),h,04/23.2159/2021,61.8338,19.4904,82.3739,1.003950,6.818294,2000,6.0,4.0
# From MPEC 2020-QN1
C/2020 P4-B (SOHO),h,08/07.6736/2020,26.8781,171.7622,173.3798,1.000557,0.102278,2000,0.0,6.0
# From MPEC 2020-QN1
C/2020 P4-C (SOHO),h,08/05.3472/2020,37.2569,165.3511,115.9158,1.013257,0.089514,2000,-1.6,6.0
# From MPC191586
C/2020 PV6 (PANSTARRS),e,128.1335,329.1174,71.2513,41.45202,0.0036931,0.94473803,5.9703,02/28.0/2026,2000,g 11.5,4.0
# From MPEC 2023-CD7
C/2020 Q2 (PANSTARRS),e,3.3365,179.8450,118.1114,10.59167,0.0285928,0.48849797,63.6937,02/28.0/2026,2000,g 12.0,3.2
# From MPEC 2024-F34
C/2020 R2 (PANSTARRS),e,53.2037,195.1453,211.8939,425.6944,0.0001122,0.98895552,0.0000,02/25.1991/2022,2000,g  9.0,4.0
# From MPEC 2023-C45
P/2020 R5 (PANSTARRS),e,11.4394,272.9378,82.7207,4.994572,0.0882992,0.31277969,185.7856,02/28.0/2026,2000,g  9.5,6.0
# From MPEC 2024-PC5
C/2020 R7 (ATLAS),e,114.9040,268.3057,347.7148,4254,0.0000036,0.99930659,0.0000,09/15.8801/2022,2000,g  7.0,3.2
# From MPEC 2024-N80
C/2020 S4 (PANSTARRS),h,02/09.7939/2023,20.5719,117.6751,21.0966,1.003133,3.371626,2000,8.5,3.2
# From MPEC 2021-BE3
P/2020 S5 (PANSTARRS),e,12.3397,316.0093,53.2575,4.059616,0.1204971,0.33700598,244.7323,02/28.0/2026,2000,g 14.5,4.0
# From MPEC 2022-TD3
C/2020 T2 (Palomar),e,27.8429,83.0065,150.3160,263.7918,0.0002300,0.99223313,0.0000,07/10.6802/2021,2000,g 11.0,3.2
# From MPEC 2024-TD8
C/2020 U4 (PANSTARRS),h,04/10.3978/2022,167.0039,120.4048,70.2008,1.001709,5.363100,2000,7.0,4.0
# From MPEC 2024-GJ3
C/2020 U5 (PANSTARRS),e,97.3164,107.3132,75.4708,146331,0.0000000,0.99997433,0.0000,04/28.6921/2022,2000,g  8.0,4.0
# From MPC188409
C/2020 V2 (ZTF),h,05/08.6200/2023,131.6079,212.4285,162.4925,1.001223,2.229760,2000,4.9,4.0
# From MPEC 2023-D72
P/2020 V3 (PANSTARRS),e,23.0136,198.2727,249.9366,8.412914,0.0403910,0.25776472,74.1942,02/28.0/2026,2000,g  8.3,4.0
# From MPC188409
P/2020 V4 (Rankin),e,14.2315,203.4874,257.3397,9.405089,0.0341712,0.45160022,57.4989,02/28.0/2026,2000,g  9.0,4.0
# From MPEC 2021-BE3
P/2020 W1 (Rankin),e,10.7761,124.3820,265.4168,7.227306,0.0507270,0.26499012,109.1027,02/28.0/2026,2000,g 10.0,4.0
# From MPEC 2024-PC5
P/2020 WJ5 (Lemmon),e,22.2896,177.7441,338.1528,6.016042,0.0667940,0.17232315,113.7162,02/28.0/2026,2000,g  8.5,4.0
# From MPEC 2024-F34
P/2020 X1 (ATLAS),e,31.6852,55.9940,323.5151,4.537544,0.1019701,0.36399984,209.0294,02/28.0/2026,2000,g 13.0,4.0
# From MPEC 2024-A43
C/2020 X2 (ATLAS),e,18.1871,105.3512,347.6337,16.56355,0.0146209,0.76838457,28.1992,02/28.0/2026,2000,g 10.6,4.0
# From MPEC 2021-S45
C/2020 X4 (Leonard),e,80.6703,161.9797,140.2567,40.51332,0.0038221,0.87110941,7.3797,02/28.0/2026,2000,g  9.0,4.0
# From MPC181179
C/2020 Y2 (ATLAS),e,101.2461,26.5514,266.4191,1194,0.0000239,0.99736399,0.0000,06/17.5748/2022,2000,g  6.5,4.0
# From MPC181179
C/2021 A1 (Leonard),h,01/04.1534/2022,132.7298,255.8991,225.1098,1.000282,0.614219,2000,8.5,4.0
# From MPC181180
P/2021 A5 (PANSTARRS),e,18.1849,328.6831,62.1604,3.051942,0.1848586,0.14097911,356.4085,02/28.0/2026,2000,g 15.0,4.0
# From MPEC 2024-P23
C/2021 A6 (PANSTARRS),e,75.5545,164.0045,351.6559,19998,0.0000003,0.99960361,0.0000,05/03.4397/2021,2000,g  7.0,4.0
# From MPEC 2022-M88
C/2021 A7 (NEOWISE),e,78.2465,154.3681,356.0278,2079,0.0000104,0.99905401,0.0000,07/15.2207/2021,2000,g 10.0,4.0
# From MPC191586
C/2021 A9 (PANSTARRS),e,158.0177,314.8498,211.6788,47343,0.0000001,0.99983596,0.0000,12/04.5450/2023,2000,g  6.0,4.0
# From MPEC 2021-U31
P/2021 C2 (PANSTARRS),e,21.9331,66.4519,78.7654,9.551093,0.0333906,0.48862639,61.0595,02/28.0/2026,2000,g 12.0,4.0
# From MPC191586
C/2021 C4 (ATLAS),e,132.8227,194.1990,319.9790,2752,0.0000068,0.99836760,0.0000,01/15.6658/2021,2000,g  9.0,4.0
# From MPEC 2024-N80
C/2021 C5 (PANSTARRS),e,50.8078,323.6754,270.8647,1683,0.0000143,0.99807520,0.0000,02/11.0331/2023,2000,g  9.0,4.0
# From MPC191586
C/2021 D2 (ZTF),h,02/03.3589/2022,83.7642,305.6130,125.1006,1.001378,2.952514,2000,9.0,4.0
# From MPEC 2022-UY9
A/2021 E2,e,167.4981,190.7086,342.1813,196.1510,0.0003588,0.98835217,0.0000,12/08.2278/2020,2000,g 15.0,2.0
# From MPEC 2024-GJ3
C/2021 E3 (ZTF),e,112.5204,104.4839,228.7800,3446,0.0000049,0.99948404,0.0000,06/10.5854/2022,2000,g  8.5,4.0
# From MPEC 2024-N80
A/2021 E4,e,116.3985,171.1274,48.3106,510.9157,0.0000853,0.99083499,0.0000,04/24.8839/2022,2000,g 13.5,2.0
# From MPC191586
C/2021 G2 (ATLAS),h,09/09.1555/2024,48.4595,221.0889,343.2671,1.001034,4.982032,2000,5.5,4.0
# From MPEC 2022-X67
C/2021 G3 (PANSTARRS),e,102.8782,147.3254,10.6290,12759,0.0000007,0.99959358,0.0000,10/17.9764/2021,2000,g 10.5,4.0
# From MPEC 2024-F34
P/2021 J3 (ATLAS),e,14.5112,110.9194,125.5458,8.878619,0.0372551,0.44985815,90.7205,02/28.0/2026,2000,g  7.0,4.0
# From MPEC 2022-O08
C/2021 K1 (ATLAS),e,16.2683,140.9319,184.1918,12.58498,0.0220763,0.80110961,38.9337,02/28.0/2026,2000,g 11.0,4.0
# From MPEC 2022-O01
C/2021 K2 (MASTER),h,09/08.9372/2021,100.8720,282.3401,343.2254,1.000077,5.459603,2000,8.0,4.0
# From MPEC 2022-L66
C/2021 K3 (Catalina),h,02/03.3086/2022,134.7803,114.6164,181.9697,1.003765,5.224171,2000,10.0,4.0
# From MPEC 2024-H50
C/2021 L3 (Borisov),h,02/14.9347/2022,78.5214,345.0257,91.6609,1.004195,8.461845,2000,6.0,4.0
# From MPEC 2022-TA0
P/2021 N1 (ZTF),e,11.4853,301.1316,21.2153,2.980511,0.1915437,0.67573986,331.3003,02/28.0/2026,2000,g 19.0,4.0
# From MPEC 2024-GJ3
P/2021 N2 (Fuls),e,13.0584,221.7538,177.6493,6.947882,0.0538177,0.45176342,84.3509,02/28.0/2026,2000,g  9.5,4.0
# From MPEC 2022-YB4
C/2021 N3 (PANSTARRS),e,26.7713,337.5426,304.5201,138.2539,0.0006063,0.95871841,1.2258,02/28.0/2026,2000,g  8.5,4.0
# From MPEC 2024-F34
C/2021 P1 (PANSTARRS),e,51.6073,359.7264,40.5303,2329,0.0000088,0.99811843,0.0000,06/02.3176/2022,2000,g 11.0,4.0
# From MPC185656
C/2021 P2 (PANSTARRS),e,150.0457,32.1021,76.6935,11880,0.0000008,0.99957359,0.0000,01/22.9900/2023,2000,g  9.0,4.0
# From MPEC 2024-GJ3
P/2021 P3 (PANSTARRS),e,27.1646,358.2429,333.9463,4.411645,0.1063661,0.33847430,184.8181,02/28.0/2026,2000,g 14.0,4.0
# From MPEC 2023-A50
C/2021 P4 (ATLAS),e,56.4120,347.9703,175.8281,299.8580,0.0001898,0.99640380,0.0000,07/30.5564/2022,2000,g  9.5,4.0
# From MPEC 2023-FK0
C/2021 Q3 (ATLAS),e,77.7071,307.9046,114.1633,74.64123,0.0015284,0.93017826,2.2839,02/28.0/2026,2000,g  8.0,4.0
# From MPC188409
C/2021 Q4 (Fuls),h,06/10.1768/2023,71.5549,183.3367,147.0079,1.000373,7.563374,2000,6.0,4.0
# From MPC181180
P/2021 Q5 (ATLAS),e,10.7377,239.7313,180.9731,3.284211,0.1655989,0.62418275,271.8018,02/28.0/2026,2000,g 15.0,4.0
# From MPC188409
C/2021 Q6 (PANSTARRS),h,03/25.3046/2024,161.8276,133.5734,141.0617,1.003490,8.707381,2000,6.0,4.0
# From MPEC 2023-FK0
C/2021 QM45 (PANSTARRS),e,22.7864,354.5907,72.9662,413.6335,0.0001172,0.99327666,0.0000,08/13.5464/2022,2000,g 11.0,4.0
# From MPEC 2022-X67
P/2021 R1 (PANSTARRS),e,5.5409,143.0519,219.9583,8.235152,0.0417058,0.40644764,64.4714,02/28.0/2026,2000,g 11.0,4.0
# From MPEC 2022-X67
C/2021 R2 (PANSTARRS),e,134.4778,16.3609,32.5620,19762,0.0000004,0.99962984,0.0000,12/28.6092/2021,2000,g  7.5,4.0
# From MPEC 2021-W31
P/2021 R3 (PANSTARRS),e,19.9454,304.1987,2.5745,3.767733,0.1347671,0.33223997,234.4577,02/28.0/2026,2000,g 16.0,4.0
# From MPEC 2024-JU4
P/2021 R5 (Rankin),e,7.8527,219.9689,167.6092,4.799121,0.0937479,0.30556562,141.3973,02/28.0/2026,2000,g 12.0,4.0
# From MPEC 2022-X67
C/2021 R7 (PANSTARRS),e,158.8812,170.2255,140.4373,1097,0.0000271,0.99484333,0.0000,04/17.8394/2021,2000,g 10.5,4.0
# From MPEC 2021-Y10
P/2021 R8 (Sheppard),e,2.2026,167.0557,190.7992,3.020674,0.1877364,0.29240120,301.4652,02/28.0/2026,2000,g 18.5,4.0
# From MPEC 2023-J29
C/2021 S1 (ATLAS),h,03/02.1712/2022,52.0333,299.8492,148.3559,1.002966,6.128914,2000,7.0,4.0
# From MPC191586
C/2021 S3 (PANSTARRS),e,58.5593,215.5846,6.8294,14293,0.0000006,0.99990771,0.0000,02/14.6603/2024,2000,g  5.5,4.0
# From MPC184409
C/2021 S4 (Tsuchinshan),e,17.4825,5.4350,73.0979,152.2754,0.0005245,0.95603731,0.4123,02/28.0/2026,2000,g  6.5,4.0
# From MPC184409
C/2021 T4 (Lemmon),e,160.7788,257.8833,329.7326,2769,0.0000068,0.99946528,0.0000,07/31.3904/2023,2000,g  7.5,4.0
# From MPEC 2024-JU4
P/2021 V2 (Fuls),e,12.6893,232.2735,259.9511,9.098318,0.0359139,0.61547106,40.6802,02/28.0/2026,2000,g 10.0,4.0
# From MPEC 2024-TD8
C/2021 X1 (Maury-Attard),h,05/27.4271/2023,140.1111,10.6408,334.6466,1.000852,3.234734,2000,7.0,4.0
